H1 CPF  1  DLR 2022 05 28 10  6482 technosat            
H2  1704205 6203    42829 2022 05 28 00 00 00 2022 06 04 00 00 00    60 1 1  0 0 0
H9
10 0 59731  57600.000000  0      -2829473.222      -3112547.297       5538456.189
10 0 59731  57660.000000  0      -2669426.215      -2767264.169       5794567.565
10 0 59731  57720.000000  0      -2495016.415      -2411733.450       6025979.522
10 0 59731  57780.000000  0      -2306901.299      -2047584.328       6231710.112
10 0 59731  57840.000000  0      -2105810.559      -1676476.007       6410887.458
10 0 59731  57900.000000  0      -1892543.092      -1300089.904       6562753.380
10 0 59731  57960.000000  0      -1667963.654       -920121.800       6686666.390
10 0 59731  58020.000000  0      -1432999.226       -538274.062       6782104.096
10 0 59731  58080.000000  0      -1188635.168       -156248.044       6848665.196
10 0 59731  58140.000000  0       -935911.044        224263.522       6886071.134
10 0 59731  58200.000000  0       -675916.129        601584.115       6894167.211
10 0 59731  58260.000000  0       -409784.639        974060.889       6872923.141
10 0 59731  58320.000000  0       -138690.725       1340071.957       6822433.108
10 0 59731  58380.000000  0        136156.758       1698033.526       6742915.350
10 0 59731  58440.000000  0        413519.728       2046406.831       6634711.156
10 0 59731  58500.000000  0        692136.477       2383704.748       6498283.366
10 0 59731  58560.000000  0        970727.430       2708498.171       6334214.462
10 0 59731  58620.000000  0       1248001.052       3019422.143       6143204.158
10 0 59731  58680.000000  0       1522659.848       3315181.706       5926066.495
10 0 59731  58740.000000  0       1793406.463       3594557.404       5683726.452
10 0 59731  58800.000000  0       2058949.853       3856410.450       5417216.115
10 0 59731  58860.000000  0       2318011.539       4099687.531       5127670.355
10 0 59731  58920.000000  0       2569331.851       4323425.188       4816321.986
10 0 59731  58980.000000  0       2811676.082       4526753.692       4484496.500
10 0 59731  59040.000000  0       3043840.535       4708900.516       4133606.479
10 0 59731  59100.000000  0       3264658.521       4869193.373       3765145.642
10 0 59731  59160.000000  0       3473006.295       5007062.882       3380682.603
10 0 59731  59220.000000  0       3667808.980       5122044.846       2981854.072
10 0 59731  59280.000000  0       3848046.211       5213781.781       2570357.508
10 0 59731  59340.000000  0       4012757.288       5282023.748       2147943.676
10 0 59731  59400.000000  0       4161046.141       5326628.839       1716409.181
10 0 59731  59460.000000  0       4292086.158       5347563.308       1277588.755
10 0 59731  59520.000000  0       4405124.725       5344901.174        833347.132
10 0 59731  59580.000000  0       4499487.273       5318823.090        385570.749
10 0 59731  59640.000000  0       4574580.929       5269614.650        -63840.477
10 0 59731  59700.000000  0       4629897.841       5197664.262       -512981.370
10 0 59731  59760.000000  0       4665018.113       5103460.547       -959949.731
10 0 59731  59820.000000  0       4679612.294       4987589.291      -1402854.573
10 0 59731  59880.000000  0       4673443.410       4850729.940      -1839824.245
10 0 59731  59940.000000  0       4646368.561       4693651.674      -2269014.454
10 0 59731  60000.000000  0       4598340.068       4517209.071      -2688616.108
10 0 59731  60060.000000  0       4529406.151       4322337.424      -3096862.988
10 0 59731  60120.000000  0       4439711.093       4110047.676      -3492039.163
10 0 59731  60180.000000  0       4329494.946       3881421.054      -3872486.075
10 0 59731  60240.000000  0       4199092.862       3637603.479      -4236609.299
10 0 59731  60300.000000  0       4048933.984       3379799.721      -4582885.055
10 0 59731  60360.000000  0       3879539.883       3109267.352      -4909866.324
10 0 59731  60420.000000  0       3691522.597       2827310.560      -5216188.617
10 0 59731  60480.000000  0       3485582.236       2535273.822      -5500575.368
10 0 59731  60540.000000  0       3262504.211       2234535.469      -5761842.875
10 0 59731  60600.000000  0       3023156.118       1926501.192      -5998904.853
10 0 59731  60660.000000  0       2768484.234       1612597.510      -6210776.566
10 0 59731  60720.000000  0       2499509.695       1294265.262      -6396578.500
10 0 59731  60780.000000  0       2217324.380        972953.130      -6555539.620
10 0 59731  60840.000000  0       1923086.534        650111.216      -6687000.187
10 0 59731  60900.000000  0       1618016.154        327184.723      -6790414.238
10 0 59731  60960.000000  0       1303390.031          5607.673      -6865351.732
10 0 59731  61020.000000  0        980536.445       -313203.328      -6911500.153
10 0 59731  61080.000000  0        650829.700       -627855.130      -6928665.580
10 0 59731  61140.000000  0        315684.499       -936983.893      -6916773.398
10 0 59731  61200.000000  0        -23449.893      -1239260.776      -6875868.609
10 0 59731  61260.000000  0       -365095.646      -1533397.428      -6806115.755
10 0 59731  61320.000000  0       -707752.602      -1818151.320      -6707798.478
10 0 59731  61380.000000  0      -1049904.667      -2092330.909      -6581318.574
10 0 59731  61440.000000  0      -1390026.318      -2354800.573      -6427194.591
10 0 59731  61500.000000  0      -1726589.192      -2604485.237      -6246059.961
10 0 59731  61560.000000  0      -2058068.749      -2840374.749      -6038660.785
10 0 59731  61620.000000  0      -2382951.023      -3061527.992      -5805853.183
10 0 59731  61680.000000  0      -2699739.445      -3267076.742      -5548600.253
10 0 59731  61740.000000  0      -3006961.747      -3456229.255      -5267968.547
10 0 59731  61800.000000  0      -3303176.850      -3628273.493      -4965124.026
10 0 59731  61860.000000  0      -3586981.662      -3782579.970      -4641327.589
10 0 59731  61920.000000  0      -3857017.800      -3918604.252      -4297930.207
10 0 59731  61980.000000  0      -4111978.206      -4035889.078      -3936367.649
10 0 59731  62040.000000  0      -4350613.656      -4134066.108      -3558154.790
10 0 59731  62100.000000  0      -4571739.084      -4212857.260      -3164879.504
10 0 59731  62160.000000  0      -4774239.674      -4272075.621      -2758196.163
10 0 59731  62220.000000  0      -4957076.691      -4311625.912      -2339818.789
10 0 59731  62280.000000  0      -5119293.026      -4331504.507      -1911513.891
10 0 59731  62340.000000  0      -5260018.405      -4331799.021      -1475092.995
10 0 59731  62400.000000  0      -5378474.225      -4312687.459      -1032404.910
10 0 59731  62460.000000  0      -5473977.992      -4274436.886       -585327.767
10 0 59731  62520.000000  0      -5545947.350      -4217401.684       -135760.877
10 0 59731  62580.000000  0      -5593903.625      -4142021.373        314383.605
10 0 59731  62640.000000  0      -5617474.866      -4048817.993        763189.129
10 0 59731  62700.000000  0      -5616398.344      -3938393.037       1208743.275
10 0 59731  62760.000000  0      -5590522.484      -3811423.957       1649146.247
10 0 59731  62820.000000  0      -5539808.262      -3668660.307       2082519.294
10 0 59731  62880.000000  0      -5464330.043      -3510919.527       2507013.047
10 0 59731  62940.000000  0      -5364275.838      -3339082.433       2920815.693
10 0 59731  63000.000000  0      -5239947.021      -3154088.419       3322161.004
10 0 59731  63060.000000  0      -5091757.473      -2956930.359       3709336.159
10 0 59731  63120.000000  0      -4920232.136      -2748649.252       4080689.314
10 0 59731  63180.000000  0      -4726004.969      -2530328.659       4434636.808
10 0 59731  63240.000000  0      -4509816.415      -2303088.997       4769669.972
10 0 59731  63300.000000  0      -4272510.381      -2068081.749       5084361.590
10 0 59731  63360.000000  0      -4015030.753      -1826483.571       5377371.985
10 0 59731  63420.000000  0      -3738417.446      -1579490.370       5647454.729
10 0 59731  63480.000000  0      -3443801.991      -1328311.293       5893461.980
10 0 59731  63540.000000  0      -3132402.630      -1074162.700       6114349.325
10 0 59731  63600.000000  0      -2805519.005       -818262.174       6309180.138
10 0 59731  63660.000000  0      -2464526.460       -561822.563       6477129.399
10 0 59731  63720.000000  0      -2110869.995       -306046.173       6617486.973
10 0 59731  63780.000000  0      -1746057.958        -52119.150       6729660.403
10 0 59731  63840.000000  0      -1371655.499        198793.998       6813177.260
10 0 59731  63900.000000  0       -989277.749        445555.769       6867687.029
10 0 59731  63960.000000  0       -600582.751        687060.854       6892962.464
10 0 59731  64020.000000  0       -207264.187        922241.109       6888900.438
10 0 59731  64080.000000  0        188956.052       1150070.305       6855522.301
10 0 59731  64140.000000  0        586335.478       1369568.645       6792973.763
10 0 59731  64200.000000  0        983118.759       1579807.037       6701524.192
10 0 59731  64260.000000  0       1377545.509       1779911.027       6581565.419
10 0 59731  64320.000000  0       1767858.145       1969064.439       6433610.082
10 0 59731  64380.000000  0       2152309.753       2146512.718       6258289.493
10 0 59731  64440.000000  0       2529171.974       2311565.973       6056351.070
10 0 59731  64500.000000  0       2896742.919       2463601.711       5828655.251
10 0 59731  64560.000000  0       3253355.003       2602067.203       5576171.884
10 0 59731  64620.000000  0       3597382.630       2726481.503       5299976.133
10 0 59731  64680.000000  0       3927249.694       2836437.130       5001243.938
10 0 59731  64740.000000  0       4241436.907       2931601.373       4681247.095
99
